HXMT (HUIYAN)           
1 42758U 17034A   26061.86602787  .00006353  00000+0  32002-3 0  9996
2 42758  43.0149  54.6060 0032156 194.0063 165.9896 15.17355273481501
SAOCOM 1A               
1 43641U 18076A   26061.80693141  .00000943  00000+0  12505-3 0  9998
2 43641  97.8883 250.0766 0001286  83.4475 276.6885 14.82160666400340
H-2A R/B                
1 43682U 18084L   26061.59095046  .00022530  00000+0  54195-3 0  9995
2 43682  98.8738 277.4639 0025913  49.2078 311.1406 15.40984025404682
SAOCOM 1B               
1 46265U 20059A   26061.83815559  .00000626  00000+0  85205-4 0  9995
2 46265  97.8884 249.2053 0001471  80.6266 279.5113 14.82164798297731
CSS (TIANHE)            
1 48274U 21035A   26061.80363536  .00017409  00000+0  21017-3 0  9999
2 48274  41.4651 250.0496 0006617 230.1207 129.9050 15.60315912276531
COSMOS 2550             
1 48865U 21056A   26061.86616021 -.00000183  00000+0  27367-6 0  9993
2 48865  67.1424  61.5723 0008381 269.6976  90.3218 15.33830804262419
CZ-2C R/B               
1 52794U 22058K   26061.24589089  .00033239  00000+0  49712-3 0  9999
2 52794  50.1902 356.5623 0042153 169.0449 191.1449 15.53608022208971
CZ-2C R/B               
1 54039U 22132E   26061.57868897  .00041736  00000+0  48949-3 0  9991
2 54039  97.2955  64.6834 0020770 113.8391 246.5046 15.61126003189261
GSLV R/B                
1 54149U 22138AN  26061.76770190  .00004840  00000+0  41951-3 0  9999
2 54149  87.3884 168.6784 0021983 170.7176 189.4466 14.96712862182897
XRISM                   
1 57800U 23137A   26061.83857387  .00007710  00000+0  43942-3 0  9999
2 57800  31.0033 327.9739 0008219 329.5006  30.5154 15.11403909136750
ACS3                    
1 59588U 24077B   26061.80074936  .00019327  00000+0  15684-1 0  9993
2 59588  97.2116   4.4609 0054705  95.2616 265.4793 13.89238489 93245
SZ-21 MODULE            
1 66515U 25246C   26061.55898934  .00039531  00000+0  34908-3 0  9995
2 66515  41.4734 247.2373 0001469 286.7563  73.3117 15.67907744 16956
